INTELSAT 26             
1 24732C 97007A   20282.00000000  .00000108  00000-0  00000-0 0  2829
2 24732   9.1988  42.2709 0002993 112.4354 286.0282  1.00278339    14
INTELSAT 26         [PM]
1 24732C 97007A   20285.15625000  .00000108  00000-0  00000-0 0  2854
2 24732   9.2004  42.2966 0001654 335.4765 122.3951  1.00265997    16
INTELSAT 26             
1 24732C 97007A   20286.00000000  .00000108  00000-0  00000-0 0  2867
2 24732   9.2015  42.2514 0002333 107.1943 295.2446  1.00275138    11
INTELSAT 26         [PM]
1 24732C 97007A   20286.79166667  .00000108  00000-0  00000-0 0  2865
2 24732   9.2004  42.2977 0004474 142.1912 186.0145  1.00267510    13
GALAXY 25               
1 24812C 97026A   20282.00000000  .00000246  00000-0  00000-0 0  2822
2 24812   2.1861  89.4386 0004814 149.4268 171.1560  1.00273950    15
GALAXY 25           [PM]
1 24812C 97026A   20284.75000000  .00000245  00000-0  00000-0 0  2847
2 24812   2.1910  89.4311 0005030 154.4111  78.8830  1.00272216    19
GALAXY 25               
1 24812C 97026A   20286.00000000  .00000245  00000-0  00000-0 0  2869
2 24812   2.1935  89.5046 0005050 151.7679 172.6895  1.00270858    17
GALAXY 25           [PM]
1 24812C 97026A   20287.55719907  .00000245  00000-0  00000-0 0  2874
2 24812   2.1957  89.4661 0004694 155.6777  10.9387  1.00270378    15
INTELSAT 5          [PM]
1 24916C 97046A   20265.51877315  .00000186  00000-0  00000-0 0  2651
2 24916   5.9041  64.9954 0004439 104.7159 240.9004  1.00271166    11
INTELSAT 5              
1 24916C 97046A   20282.00000000  .00000186  00000-0  00000-0 0  2822
2 24916   5.9368  64.8962 0003035 170.4493   4.7656  1.00273942    16
INTELSAT 5              
1 24916C 97046A   20286.00000000  .00000186  00000-0  00000-0 0  2860
2 24916   5.9418  64.8942 0003008 174.4977   4.6681  1.00271789    15
GALAXY 11               
1 26038C 99071A   20282.00000000 -.00000073  00000-0  00000-0 0  2825
2 26038   1.4887  95.2895 0001284 175.8579  12.8759  1.00271185    12
GALAXY 11               
1 26038C 99071A   20286.00000000 -.00000073  00000-0  00000-0 0  2863
2 26038   1.4968  95.4475 0001403 185.5770   6.9484  1.00270019    16
INTELSAT 9              
1 26451C 00043A   20282.00000000 -.00000191  00000-0  00000-0 0  2826
2 26451   5.9251  65.0938 0004059 161.1613 100.8703  1.00269697    10
INTELSAT 9          [PM]
1 26451C 00043A   20285.59195602 -.00000191  00000-0  00000-0 0  2859
2 26451   5.9297  65.1016 0000829 133.9526 344.7270  1.00270536    11
INTELSAT 9              
1 26451C 00043A   20286.00000000 -.00000191  00000-0  00000-0 0  2864
2 26451   5.9302  65.0992 0003832 160.7436 105.2343  1.00271192    15
INTELSAT 12             
1 26590C 00068A   20282.00000000  .00000104  00000-0  00000-0 0  2820
2 26590   3.1911  85.2024 0004720 135.6952 220.4669  1.00273479    17
INTELSAT 12             
1 26590C 00068A   20286.00000000  .00000104  00000-0  00000-0 0  2868
2 26590   3.1983  85.2303 0004722 141.1947 218.9004  1.00272761    12
INTELSAT 12         [PM]
1 26590C 00068A   20286.07429398  .00000104  00000-0  00000-0 0  2860
2 26590   3.1986  85.2236 0004511 139.9532 246.9672  1.00270685    16
INTELSAT 1R             
1 26608C 00072A   20282.00000000 -.00000046  00000-0  00000-0 0  2821
2 26608   2.9578  85.7048 0001072  14.2705  74.2579  1.00271179    19
INTELSAT 1R             
1 26608C 00072A   20286.00000000 -.00000046  00000-0  00000-0 0  2869
2 26608   2.9631  85.7469 0001393   1.2608  91.1751  1.00269631    10
INTELSAT 10             
1 26766C 01019A   20282.00000000  .00000216  00000-0  00000-0 0  2826
2 26766   4.1428  78.1567 0003975 130.9957 215.4770  1.00271094    11
INTELSAT 10         [PM]
1 26766C 01019A   20282.60649306  .00000216  00000-0  00000-0 0  2820
2 26766   4.1443  78.1568 0003183 152.3169  53.0849  1.00271926    10
INTELSAT 10             
1 26766C 01019A   20286.00000000  .00000216  00000-0  00000-0 0  2864
2 26766   4.1492  78.1720 0003799 133.9940 216.3997  1.00271436    13
INTELSAT 901            
1 26824C 01024A   20282.00000000 -.00000112  00000-0  00000-0 0  2823
2 26824   0.0364  64.0150 0001212 159.6816 125.9344  1.00271449    12
INTELSAT 901            
1 26824C 01024A   20286.00000000 -.00000109  00000-0  00000-0 0  2867
2 26824   0.0346  89.7187 0001050 140.6282 123.2341  1.00269792    19
INTELSAT 902            
1 26900C 01039A   20282.00000000 -.00000192  00000-0  00000-0 0  2822
2 26900   0.8830  95.3811 0003479 113.9472 117.6927  1.00277786    17
INTELSAT 902            
1 26900C 01039A   20286.00000000 -.00000192  00000-0  00000-0 0  2860
2 26900   0.8916  95.6187 0003139 114.9859 120.3616  1.00269410    15
INTELSAT 902        [PM]
1 26900C 01039A   20286.86403935 -.00000192  00000-0  00000-0 0  2868
2 26900   0.8929  95.5982 0002935 111.0010  76.2670  1.00272503    17
INTELSAT 904            
1 27380C 02007A   20282.00000000 -.00000123  00000-0  00000-0 0  2825
2 27380   1.7218  92.1423 0003408 114.5062 140.9680  1.00272863    14
INTELSAT 904            
1 27380C 02007A   20286.00000000 -.00000123  00000-0  00000-0 0  2863
2 27380   1.7300  92.2402 0003278 119.1824 140.1472  1.00271168    14
INTELSAT 904        [PM]
1 27380C 02007A   20290.82731482 -.00000123  00000-0  00000-0 0  2908
2 27380   1.7411  92.0159 0002938 113.9061  88.2208  1.00272340    13
INTELSAT 905            
1 27438C 02027A   20282.00000000 -.00000094  00000-0  00000-0 0  2828
2 27438   1.5425  93.0085 0002784 109.1040 150.5209  1.00272400    13
INTELSAT 905            
1 27438C 02027A   20286.00000000 -.00000094  00000-0  00000-0 0  2866
2 27438   1.5507  93.1284 0002648 115.8847 147.5648  1.00270013    15
INTELSAT 905        [PM]
1 27438C 02027A   20288.85208333 -.00000094  00000-0  00000-0 0  2882
2 27438   1.5579  84.8227 0002479  99.2054 122.1003  1.00271852    11
GALAXY 3C               
1 27445C 02030A   20282.00000000 -.00000061  00000-0  00000-0 0  2824
2 27445   0.0264 289.3519 0001836  30.6817 322.0181  1.00270845    11
GALAXY 3C               
1 27445C 02030A   20286.00000000 -.00000061  00000-0  00000-0 0  2862
2 27445   0.0253 275.6134 0001925  47.1290 323.2652  1.00269472    17
INTELSAT 906            
1 27513C 02041A   20282.00000000  .00000105  00000-0  00000-0 0  2820
2 27513   0.5475  97.7835 0003411 108.1200 235.3599  1.00272152    18
INTELSAT 906            
1 27513C 02041A   20286.00000000  .00000105  00000-0  00000-0 0  2868
2 27513   0.5563  98.1493 0003318 113.9590 233.1051  1.00271393    18
INTELSAT 906        [PM]
1 27513C 02041A   20287.03751157  .00000105  00000-0  00000-0 0  2879
2 27513   0.5578  98.1400 0003219 113.1964 248.4053  1.00270383    18
GALAXY 12               
1 27715C 03013B   20282.00000000  .00000149  00000-0  00000-0 0  2822
2 27715   1.7578  91.4992 0001826 116.5389  40.0713  1.00272024    10
GALAXY 12               
1 27715C 03013B   20286.00000000  .00000149  00000-0  00000-0 0  2860
2 27715   1.7658  91.5949 0001660 125.6971  34.7708  1.00272009    13
GALAXY 12           [PM]
1 27715C 03013B   20287.61490741  .00000149  00000-0  00000-0 0  2874
2 27715   1.7680  91.5583 0001772 114.8462 268.6208  1.00269976    13
GALAXY 23               
1 27854C 03034A   20282.00000000  .00000103  00000-0  00000-0 0  2829
2 27854   0.0164 241.3045 0003094 321.8957  52.9121  1.00271878    14
GALAXY 23               
1 27854C 03034A   20286.00000000  .00000103  00000-0  00000-0 0  2867
2 27854   0.0120 210.2855 0002955 359.6030  50.1737  1.00271471    18
GALAXY 23           [PM]
1 27854C 03034A   20289.04408565  .00000103  00000-0  00000-0 0  2895
2 27854   0.0294 250.3991 0002837 317.5440  70.9938  1.00270621    12
GALAXY 13               
1 27954C 03044A   20282.00000000  .00000140  00000-0  00000-0 0  2822
2 27954   0.0052 171.7260 0000291 262.6409 175.7484  1.00272774    18
GALAXY 13           [PM]
1 27954C 03044A   20282.89421296  .00000141  00000-0  00000-0 0  2824
2 27954   0.0055 164.0615 0000659 221.2492 187.6220  1.00273392    18
GALAXY 13               
1 27954C 03044A   20286.00000000  .00000138  00000-0  00000-0 0  2867
2 27954   0.0160 149.7917 0003381  38.2992  65.9663  1.00268236    16
INTELSAT 10-02          
1 28358C 04022A   20282.00000000  .00000082  00000-0  00000-0 0  2823
2 28358   0.0114 237.2197 0003047 319.0969 179.7971  1.00272491    14
INTELSAT 10-02          
1 28358C 04022A   20286.00000000  .00000079  00000-0  00000-0 0  2867
2 28358   0.0087 199.6547 0002895   2.4241 177.9894  1.00271509    12
INTELSAT 10-02      [PM]
1 28358C 04022A   20288.21736111  .00000079  00000-0  00000-0 0  2883
2 28358   0.0161 219.2060 0002801 328.2623 273.0409  1.00270368    16
GALAXY 28               
1 28702C 05022A   20282.00000000 -.00000097  00000-0  00000-0 0  2824
2 28702   0.0053 250.9470 0000429  46.6588 350.5262  1.00272672    19
GALAXY 28               
1 28702C 05022A   20286.00000000 -.00000096  00000-0  00000-0 0  2861
2 28702   0.0122 246.4089 0000769  74.4478 331.2188  1.00268756    17
GALAXY 28           [PM]
1 28702C 05022A   20287.13680556 -.00000093  00000-0  00000-0 0  2874
2 28702   0.0086 237.3397 0000569  79.8740  25.2249  1.00271581    14
GALAXY 14           [PM]
1 28790C 05030A   20281.67833333  .00000126  00000-0  00000-0 0  2816
2 28790   0.0417  51.7781 0002590 149.8375 294.3892  1.00271149    15
GALAXY 14               
1 28790C 05030A   20282.00000000  .00000127  00000-0  00000-0 0  2823
2 28790   0.0417  52.7574 0002570 148.9697  50.3944  1.00271004    19
GALAXY 14               
1 28790C 05030A   20286.00000000  .00000127  00000-0  00000-0 0  2861
2 28790   0.0463  76.7823 0002409 130.8534  48.4231  1.00270804    18
GALAXY 15               
1 28884C 05041A   20282.00000000  .00000119  00000-0  00000-0 0  2820
2 28884   0.0347  98.8715 0001850 101.2321  44.0219  1.00271001    11
